full_name,epoch_mjd,a,e,i,om,w,ma,per_y
   588 Achilles (1906 TG),57400,5.205918325,0.147042468,10.31518182,316.5629881,133.5794631,138.5970224,11.8782983